NORAD_CAT_ID,OBJECT_NAME,OBJECT_TYPE,EPOCH,MEAN_MOTION,ECCENTRICITY,INCLINATION,RA_OF_ASC_NODE,ARG_OF_PERICENTER,MEAN_ANOMALY,BSTAR,MEAN_MOTION_DOT,MEAN_MOTION_DDOT,TLE_LINE0,TLE_LINE1,TLE_LINE2,SEMIMAJOR_AXIS,PERIOD,APOGEE,PERIGEE,DECAYED
55290.0,STARLINK-5266,PAYLOAD,2024-07-20 21:23:29,14.98325882,0.0002886,70.0,89.2347,271.1025,88.9803,2.9508e-05,2.59e-06,0.0,0 STARLINK-5266,1 55290U 23010X   24202.89130885  .00000259  00000-0  29508-4 0  9993,2 55290  70.0000  89.2347 0002886 271.1025  88.9803 14.98325882 83574,6950.206,96.107,574.076,570.065,0.0
55290.0,STARLINK-5266,PAYLOAD,2024-07-20 22:59:36,14.98329364,0.0002836,69.9997,89.065,266.2746,93.8089,5.9521e-05,6.17e-06,0.0,0 STARLINK-5266,1 55290U 23010X   24202.95806535  .00000617  00000-0  59521-4 0  9998,2 55290  69.9997  89.0650 0002836 266.2746  93.8089 14.98329364 83885,6950.195,96.107,574.031,570.089,0.0
55290.0,STARLINK-5266,PAYLOAD,2024-07-21 02:11:52,14.98327219,0.0002787,70.0,88.728,263.1249,96.9593,0.0001266,1.418e-05,0.0,0 STARLINK-5266,1 55290U 23010X   24203.09158496  .00001418  00000-0  12660-3 0  9992,2 55290  70.0000  88.7280 0002787 263.1249  96.9593 14.98327219 83901,6950.201,96.107,574.004,570.129,0.0
55290.0,STARLINK-5266,PAYLOAD,2024-07-21 21:25:29,14.98328111,0.000293,69.9999,86.7082,270.6295,89.4528,2.7692e-05,2.37e-06,0.0,0 STARLINK-5266,1 55290U 23010X   24203.89270648  .00000237  00000-0  27692-4 0  9994,2 55290  69.9999  86.7082 0002930 270.6295  89.4528 14.98328111 83724,6950.199,96.107,574.1,570.027,0.0
55290.0,STARLINK-5266,PAYLOAD,2024-07-22 02:13:53,14.98334903,0.0002974,69.9998,86.2034,271.3216,88.7603,5.3069e-05,5.4e-06,0.0,0 STARLINK-5266,1 55290U 23010X   24204.09298124  .00000540  00000-0  53069-4 0  9990,2 55290  69.9998  86.2034 0002974 271.3216  88.7603 14.98334903 83759,6950.178,96.107,574.11,569.976,0.0
55290.0,STARLINK-5266,PAYLOAD,2024-07-22 23:03:38,14.98333699,0.0003009,70.0001,84.0171,268.8446,91.2368,6.7238e-05,7.09e-06,0.0,0 STARLINK-5266,1 55290U 23010X   24204.96085908  .00000709  00000-0  67238-4 0  9990,2 55290  70.0001  84.0171 0003009 268.8446  91.2368 14.98333699 84187,6950.181,96.107,574.138,569.955,0.0
55290.0,STARLINK-5266,PAYLOAD,2024-07-23 02:15:54,14.98301437,0.0002701,70.0003,83.6814,267.5826,92.5023,0.00069988,8.261e-05,0.0,0 STARLINK-5266,1 55290U 23010X   24205.09438418  .00008261  00000-0  69988-3 0  9997,2 55290  70.0003  83.6814 0002701 267.5826  92.5023 14.98301437 83900,6950.281,96.109,574.023,570.269,0.0
55290.0,STARLINK-5266,PAYLOAD,2024-07-23 08:40:26,14.98341419,0.0002997,70.0014,83.0047,271.1782,88.9034,-0.00010861,-1.389e-05,0.0,0 STARLINK-5266,1 55290U 23010X   24205.36141651 -.00001389  00000-0 -10861-3 0  9999,2 55290  70.0014  83.0047 0002997 271.1782  88.9034 14.98341419 83942,6950.158,96.106,574.106,569.94,0.0
55290.0,STARLINK-5266,PAYLOAD,2024-07-23 15:04:59,14.98325699,0.0002398,70.0019,82.3339,253.7422,106.3474,3.7526e-05,3.55e-06,0.0,0 STARLINK-5266,1 55290U 23010X   24205.62846328  .00000355  00000-0  37526-4 0  9999,2 55290  70.0019  82.3339 0002398 253.7422 106.3474 14.98325699 84288,6950.206,96.107,573.738,570.405,0.0
55290.0,STARLINK-5266,PAYLOAD,2024-07-24 02:17:56,14.98297843,0.000299,70.0014,81.1548,270.4873,89.5943,0.0003872,4.526e-05,0.0,0 STARLINK-5266,1 55290U 23010X   24206.09579533  .00004526  00000-0  38720-3 0  9992,2 55290  70.0014  81.1548 0002990 270.4873  89.5943 14.98297843 84053,6950.292,96.109,574.235,570.079,0.0
55290.0,STARLINK-5266,PAYLOAD,2024-07-25 00:43:48,14.98337436,0.0002795,70.0,78.7993,264.5958,95.4882,-3.6467e-05,-5.28e-06,0.0,0 STARLINK-5266,1 55290U 23010X   24207.03041894 -.00000528  00000-0 -36467-4 0  9998,2 55290  70.0000  78.7993 0002795 264.5958  95.4882 14.98337436 84191,6950.17,96.107,573.977,570.092,0.0
55290.0,STARLINK-5266,PAYLOAD,2024-07-25 15:09:01,14.98326238,0.0002768,70.0004,77.2828,271.2062,88.878,9.2073e-05,1.006e-05,0.0,0 STARLINK-5266,1 55290U 23010X   24207.63126188  .00001006  00000-0  92073-4 0  9999,2 55290  70.0004  77.2828 0002768 271.2062  88.8780 14.98326238 84288,6950.205,96.107,573.993,570.146,0.0
55290.0,STARLINK-5266,PAYLOAD,2024-07-26 08:46:29,14.98330765,0.0003062,69.9996,75.4315,270.1255,89.9553,3.3619e-05,3.08e-06,0.0,0 STARLINK-5266,1 55290U 23010X   24208.36562022  .00000308  00000-0  33619-4 0  9996,2 55290  69.9996  75.4315 0003062 270.1255  89.9553 14.98330765 84691,6950.191,96.107,574.184,569.927,0.0
55290.0,STARLINK-5266,PAYLOAD,2024-07-26 21:35:33,14.98334789,0.0003092,69.9998,74.0849,270.0259,90.0545,1.8037e-05,1.22e-06,0.0,0 STARLINK-5266,1 55290U 23010X   24208.89969704  .00000122  00000-0  18037-4 0  9993,2 55290  69.9998  74.0849 0003092 270.0259  90.0545 14.98334789 84476,6950.178,96.107,574.192,569.894,0.0
55290.0,STARLINK-5266,PAYLOAD,2024-07-27 21:37:35,14.9832874,0.0003207,69.9996,71.5597,270.1597,89.9194,-3.3985e-05,-4.99e-06,0.0,0 STARLINK-5266,1 55290U 23010X   24209.90110163 -.00000499  00000-0 -33985-4 0  9991,2 55290  69.9996  71.5597 0003207 270.1597  89.9194 14.98328740 84927,6950.197,96.107,574.291,569.833,0.0
55290.0,STARLINK-5266,PAYLOAD,2024-07-28 00:49:51,14.98327561,0.0003208,69.9995,71.223,270.2028,89.8764,-4.3237e-05,-6.09e-06,0.0,0 STARLINK-5266,1 55290U 23010X   24210.03462305 -.00000609  00000-0 -43237-4 0  9999,2 55290  69.9995  71.2230 0003208 270.2028  89.8764 14.98327561 84649,6950.2,96.107,574.295,569.836,0.0
55290.0,STARLINK-5266,PAYLOAD,2024-07-28 21:39:35,14.98329321,0.0003036,69.9996,69.0343,270.861,89.2201,5.4664e-05,5.59e-06,0.0,0 STARLINK-5266,1 55290U 23010X   24210.90249964  .00000559  00000-0  54664-4 0  9997,2 55290  69.9996  69.0343 0003036 270.8610  89.2201 14.98329321 85076,6950.195,96.107,574.17,569.95,0.0
55290.0,STARLINK-5266,PAYLOAD,2024-07-29 00:51:51,14.98330968,0.0003026,69.9997,68.6977,270.8738,89.2074,6.9828e-05,7.4e-06,0.0,0 STARLINK-5266,1 55290U 23010X   24211.03601821  .00000740  00000-0  69828-4 0  9996,2 55290  69.9997  68.6977 0003026 270.8738  89.2074 14.98330968 84790,6950.19,96.107,574.158,569.952,0.0
55290.0,STARLINK-5266,PAYLOAD,2024-07-29 07:16:24,14.98329995,0.0002991,69.9998,68.0243,270.9874,89.0942,5.6981e-05,5.87e-06,0.0,0 STARLINK-5266,1 55290U 23010X   24211.30305918  .00000587  00000-0  56981-4 0  9999,2 55290  69.9998  68.0243 0002991 270.9874  89.0942 14.98329995 85132,6950.193,96.107,574.137,569.979,0.0
55290.0,STARLINK-5266,PAYLOAD,2024-07-29 21:41:36,14.9833061,0.0002959,69.9997,66.5094,271.6558,88.4262,5.4541e-05,5.58e-06,0.0,0 STARLINK-5266,1 55290U 23010X   24211.90389899  .00000558  00000-0  54541-4 0  9993,2 55290  69.9997  66.5094 0002959 271.6558  88.4262 14.98330610 85223,6950.191,96.107,574.113,569.999,0.0
55290.0,STARLINK-5266,PAYLOAD,2024-07-30 00:53:52,14.98332045,0.0002937,69.9998,66.1729,270.8837,89.1986,6.8849e-05,7.29e-06,0.0,0 STARLINK-5266,1 55290U 23010X   24212.03741758  .00000729  00000-0  68849-4 0  9990,2 55290  69.9998  66.1729 0002937 270.8837  89.1986 14.98332045 84945,6950.187,96.107,574.093,570.01,0.0
55290.0,STARLINK-5266,PAYLOAD,2024-07-30 07:18:25,14.98329886,0.0002917,69.9999,65.4994,270.1675,89.915,4.0158e-05,3.86e-06,0.0,0 STARLINK-5266,1 55290U 23010X   24212.30445938  .00000386  00000-0  40158-4 0  9993,2 55290  69.9999  65.4994 0002917 270.1675  89.9150 14.98329886 85281,6950.193,96.107,574.086,570.031,0.0
55290.0,STARLINK-5266,PAYLOAD,2024-07-30 21:43:37,14.9833365,0.0002945,69.9997,63.9846,268.127,91.9552,2.098e-05,1.57e-06,0.0,0 STARLINK-5266,1 55290U 23010X   24212.90529631  .00000157  00000-0  20980-4 0  9999,2 55290  69.9997  63.9846 0002945 268.1270  91.9552 14.98333650 85370,6950.182,96.107,574.093,570.0,0.0
55290.0,STARLINK-5266,PAYLOAD,2024-07-30 23:19:45,14.98334187,0.0002937,69.9998,63.8163,268.3129,91.7694,2.6912e-05,2.28e-06,0.0,0 STARLINK-5266,1 55290U 23010X   24212.97205566  .00000228  00000-0  26912-4 0  9994,2 55290  69.9998  63.8163 0002937 268.3129  91.7694 14.98334187 85380,6950.18,96.107,574.086,570.004,0.0
55290.0,STARLINK-5266,PAYLOAD,2024-07-31 21:45:39,14.98325886,0.0002902,69.9997,61.4594,268.0054,92.0772,-7.3849e-05,-9.74e-06,0.0,0 STARLINK-5266,1 55290U 23010X   24213.90670388 -.00000974  00000-0 -73849-4 0  9997,2 55290  69.9997  61.4594 0002902 268.0054  92.0772 14.98325886 85227,6950.206,96.107,574.088,570.054,0.0
55290.0,STARLINK-5266,PAYLOAD,2024-08-01 13:46:58,14.98335641,0.0003092,69.9995,59.7756,271.0253,89.0552,4.6159e-05,4.58e-06,0.0,0 STARLINK-5266,1 55290U 23010X   24214.57429385  .00000458  00000-0  46159-4 0  9999,2 55290  69.9995  59.7756 0003092 271.0253  89.0552 14.98335641 85324,6950.175,96.107,574.189,569.891,0.0
55290.0,STARLINK-5266,PAYLOAD,2024-08-01 21:47:38,14.98339336,0.0003042,69.9995,58.9338,270.9929,89.0881,0.00011239,1.249e-05,0.0,0 STARLINK-5266,1 55290U 23010X   24214.90808816  .00001249  00000-0  11239-3 0  9995,2 55290  69.9995  58.9338 0003042 270.9929  89.0881 14.98339336 85672,6950.164,96.106,574.143,569.915,0.0
55290.0,STARLINK-5266,PAYLOAD,2024-08-02 13:49:00,14.98324505,0.0002394,70.0009,57.2517,266.0661,94.0224,6.2055e-05,6.47e-06,0.0,0 STARLINK-5266,1 55290U 23010X   24215.57569905  .00000647  00000-0  62055-4 0  9996,2 55290  70.0009  57.2517 0002394 266.0661  94.0224 14.98324505 85477,6950.21,96.107,573.739,570.411,0.0
55290.0,STARLINK-5266,PAYLOAD,2024-08-02 21:49:41,14.98322957,0.0003083,69.9998,56.4093,269.0721,91.0085,-1.388e-05,-2.59e-06,0.0,0 STARLINK-5266,1 55290U 23010X   24215.90950265 -.00000259  00000-0 -13880-4 0  9999,2 55290  69.9998  56.4093 0003083 269.0721  91.0085 14.98322957 85827,6950.215,96.107,574.222,569.937,0.0
55290.0,STARLINK-5266,PAYLOAD,2024-08-03 13:51:01,14.98335476,0.0003071,69.9996,54.7254,267.0406,93.0402,-3.4766e-05,-5.08e-06,0.0,0 STARLINK-5266,1 55290U 23010X   24216.57709540 -.00000508  00000-0 -34766-4 0  9994,2 55290  69.9996  54.7254 0003071 267.0406  93.0402 14.98335476 85926,6950.176,96.107,574.175,569.907,0.0
